EAGLET-I                
1 43790U 18099AJ  26068.68676861  .00006017  00000+0  35262-3 0  9994
2 43790  97.4369 120.9821 0010486 336.8524  23.2233 15.12108144397298
STARLINK-4070           
1 52664U 22053J   26068.54770676  .00001030  00000+0  82823-4 0  9999
2 52664  53.2149 154.7596 0001344  82.1516 277.9629 15.08836537211025
